[{"OBJECT_NAME":"STARLINK-32560","OBJECT_ID":"2024-210Z","EPOCH":"2026-03-09T15:06:24.643296","MEAN_MOTION":15.27631693,"ECCENTRICITY":0.0003359,"INCLINATION":43.0062,"RA_OF_ASC_NODE":179.9209,"ARG_OF_PERICENTER":300.7869,"MEAN_ANOMALY":59.2652,"EPHEMERIS_TYPE":0,"CLASSIFICATION_TYPE":"U","NORAD_CAT_ID":61982,"ELEMENT_SET_NO":999,"REV_AT_EPOCH":7487,"BSTAR":0.0010189,"MEAN_MOTION_DOT":0.0002793,"MEAN_MOTION_DDOT":0},{"OBJECT_NAME":"LIZZIESAT-2 (LS-2)","OBJECT_ID":"2024-247G","EPOCH":"2026-03-09T11:47:37.199328","MEAN_MOTION":15.28222796,"ECCENTRICITY":0.00040927,"INCLINATION":44.9909,"RA_OF_ASC_NODE":117.0823,"ARG_OF_PERICENTER":327.5136,"MEAN_ANOMALY":32.5495,"EPHEMERIS_TYPE":0,"CLASSIFICATION_TYPE":"U","NORAD_CAT_ID":62383,"ELEMENT_SET_NO":999,"REV_AT_EPOCH":6771,"BSTAR":0.00034516624,"MEAN_MOTION_DOT":9.388e-5,"MEAN_MOTION_DDOT":0}]
